CZ-5 R/B                
1 66143U 25238B   25305.24532470  .00022117 -68887-6  98031-3 0  9993
2 66143  16.3803 270.5021 7595586 169.4100 228.6532  1.93093276   183
SPAINSAT NG II          
1 66144U 25239A   25300.94827511 -.00000130  00000+0  18821-2 0  9995
2 66144  26.1863 246.2237 8189143 179.5119 183.0640  1.15299465    62
HTV-X1                  
1 66174U 25241A   25305.52050362  .00011974  00000+0  21987-3 0  9997
2 66174  51.6344 346.5423 0004933   5.4437 354.6605 15.49679820   985
GAOFEN-14 02            
1 66175U 25242A   25301.10588829  .00014793  00000+0  55401-3 0  9993
2 66175  97.4398  13.2893 0010327 261.9781  98.0286 15.27335919   301
CZ-3B R/B               
1 66176U 25242B   25301.93325123  .00036568  00000+0  72796-3 0  9991
2 66176  97.4517  13.9913 0105040  32.7474 328.0225 15.40950652   430
2025-242C               
1 66177U 25242C   25299.40367106  .00004293  00000+0  21434-3 0  9990
2 66177  97.6110  12.4552 0044551 134.5252 225.9635 15.17165482    38
GRAVITY-1 R/B           
1 66205U 25226E   25305.60302687  .00037443  27094-5  33502-3 0  9997
2 66205  97.7935  21.6915 0161933 321.5904  37.3906 15.53574674  1086
SHENZHOU-21 (SZ-21)     
1 66263U 25246A   25305.66377233  .00031710  00000+0  38072-3 0  9998
2 66263  41.4666 266.1848 0006787 305.6533  54.3673 15.60184648257599
